[{"OBJECT_NAME":"KUIPER-00225","OBJECT_ID":"2026-030W","EPOCH":"2026-03-02T22:14:47.380992","MEAN_MOTION":15.35565465,"ECCENTRICITY":0.00037686,"INCLINATION":51.8802,"RA_OF_ASC_NODE":251.7416,"ARG_OF_PERICENTER":22.8865,"MEAN_ANOMALY":337.2288,"EPHEMERIS_TYPE":0,"CLASSIFICATION_TYPE":"U","NORAD_CAT_ID":67784,"ELEMENT_SET_NO":999,"REV_AT_EPOCH":405,"BSTAR":0.0007500369,"MEAN_MOTION_DOT":0.00026038,"MEAN_MOTION_DDOT":0},{"OBJECT_NAME":"KUIPER-00226","OBJECT_ID":"2026-030X","EPOCH":"2026-03-02T21:40:46.090272","MEAN_MOTION":15.31362603,"ECCENTRICITY":0.00197173,"INCLINATION":51.8811,"RA_OF_ASC_NODE":252.3201,"ARG_OF_PERICENTER":53.0766,"MEAN_ANOMALY":307.2021,"EPHEMERIS_TYPE":0,"CLASSIFICATION_TYPE":"U","NORAD_CAT_ID":67785,"ELEMENT_SET_NO":999,"REV_AT_EPOCH":404,"BSTAR":-5.4350894e-5,"MEAN_MOTION_DOT":-2.059e-5,"MEAN_MOTION_DDOT":0},{"OBJECT_NAME":"KUIPER-00259","OBJECT_ID":"2026-030Y","EPOCH":"2026-03-02T22:28:41.914272","MEAN_MOTION":15.34753379,"ECCENTRICITY":0.00081703,"INCLINATION":51.88,"RA_OF_ASC_NODE":251.8042,"ARG_OF_PERICENTER":31.1909,"MEAN_ANOMALY":328.956,"EPHEMERIS_TYPE":0,"CLASSIFICATION_TYPE":"U","NORAD_CAT_ID":67786,"ELEMENT_SET_NO":999,"REV_AT_EPOCH":405,"BSTAR":0.0010253781,"MEAN_MOTION_DOT":0.00034884,"MEAN_MOTION_DDOT":0},{"OBJECT_NAME":"KUIPER-00260","OBJECT_ID":"2026-030Z","EPOCH":"2026-03-02T22:05:03.415488","MEAN_MOTION":15.36122901,"ECCENTRICITY":8.195e-5,"INCLINATION":51.8793,"RA_OF_ASC_NODE":251.6967,"ARG_OF_PERICENTER":77.1636,"MEAN_ANOMALY":282.9441,"EPHEMERIS_TYPE":0,"CLASSIFICATION_TYPE":"U","NORAD_CAT_ID":67787,"ELEMENT_SET_NO":999,"REV_AT_EPOCH":396,"BSTAR":0.00077526193,"MEAN_MOTION_DOT":0.00027419,"MEAN_MOTION_DDOT":0},{"OBJECT_NAME":"KUIPER-00262","OBJECT_ID":"2026-030AA","EPOCH":"2026-03-02T22:00:43.208928","MEAN_MOTION":15.36434888,"ECCENTRICITY":7.915e-5,"INCLINATION":51.8806,"RA_OF_ASC_NODE":251.6798,"ARG_OF_PERICENTER":151.4691,"MEAN_ANOMALY":208.6339,"EPHEMERIS_TYPE":0,"CLASSIFICATION_TYPE":"U","NORAD_CAT_ID":67788,"ELEMENT_SET_NO":999,"REV_AT_EPOCH":405,"BSTAR":0.00079751816,"MEAN_MOTION_DOT":0.00028508,"MEAN_MOTION_DDOT":0},{"OBJECT_NAME":"KUIPER-00266","OBJECT_ID":"2026-030AB","EPOCH":"2026-03-02T21:46:32.220768","MEAN_MOTION":15.30992097,"ECCENTRICITY":0.00226602,"INCLINATION":51.8808,"RA_OF_ASC_NODE":252.3434,"ARG_OF_PERICENTER":52.7707,"MEAN_ANOMALY":307.534,"EPHEMERIS_TYPE":0,"CLASSIFICATION_TYPE":"U","NORAD_CAT_ID":67789,"ELEMENT_SET_NO":999,"REV_AT_EPOCH":404,"BSTAR":0.00063941832,"MEAN_MOTION_DOT":0.00019253,"MEAN_MOTION_DDOT":0},{"OBJECT_NAME":"KUIPER-00268","OBJECT_ID":"2026-030AC","EPOCH":"2026-03-02T22:11:24.255456","MEAN_MOTION":15.35675694,"ECCENTRICITY":0.00022311,"INCLINATION":51.8839,"RA_OF_ASC_NODE":251.7335,"ARG_OF_PERICENTER":31.1642,"MEAN_ANOMALY":328.9476,"EPHEMERIS_TYPE":0,"CLASSIFICATION_TYPE":"U","NORAD_CAT_ID":67790,"ELEMENT_SET_NO":999,"REV_AT_EPOCH":405,"BSTAR":0.00097943193,"MEAN_MOTION_DOT":0.00034275,"MEAN_MOTION_DDOT":0},{"OBJECT_NAME":"KUIPER-00270","OBJECT_ID":"2026-030AD","EPOCH":"2026-03-02T22:35:30.439392","MEAN_MOTION":15.34324915,"ECCENTRICITY":0.00099585,"INCLINATION":51.8795,"RA_OF_ASC_NODE":251.8335,"ARG_OF_PERICENTER":37.5814,"MEAN_ANOMALY":322.5865,"EPHEMERIS_TYPE":0,"CLASSIFICATION_TYPE":"U","NORAD_CAT_ID":67791,"ELEMENT_SET_NO":999,"REV_AT_EPOCH":405,"BSTAR":0.00074079154,"MEAN_MOTION_DOT":0.0002473,"MEAN_MOTION_DDOT":0},{"OBJECT_NAME":"KUIPER-00274","OBJECT_ID":"2026-030AE","EPOCH":"2026-03-02T21:32:22.829280","MEAN_MOTION":15.31678999,"ECCENTRICITY":0.0017116,"INCLINATION":51.8819,"RA_OF_ASC_NODE":252.2891,"ARG_OF_PERICENTER":49.8468,"MEAN_ANOMALY":310.4013,"EPHEMERIS_TYPE":0,"CLASSIFICATION_TYPE":"U","NORAD_CAT_ID":67792,"ELEMENT_SET_NO":999,"REV_AT_EPOCH":404,"BSTAR":0.0006135633,"MEAN_MOTION_DOT":0.00018802,"MEAN_MOTION_DDOT":0},{"OBJECT_NAME":"KUIPER-00275","OBJECT_ID":"2026-030AF","EPOCH":"2026-03-02T22:31:54.762528","MEAN_MOTION":15.34406671,"ECCENTRICITY":0.0008792,"INCLINATION":51.8834,"RA_OF_ASC_NODE":251.8271,"ARG_OF_PERICENTER":34.0972,"MEAN_ANOMALY":326.0577,"EPHEMERIS_TYPE":0,"CLASSIFICATION_TYPE":"U","NORAD_CAT_ID":67793,"ELEMENT_SET_NO":999,"REV_AT_EPOCH":405,"BSTAR":0.0010403373,"MEAN_MOTION_DOT":0.00035013,"MEAN_MOTION_DDOT":0},{"OBJECT_NAME":"KUIPER-00276","OBJECT_ID":"2026-030AG","EPOCH":"2026-03-02T21:37:52.307040","MEAN_MOTION":15.31494025,"ECCENTRICITY":0.0018373,"INCLINATION":51.8817,"RA_OF_ASC_NODE":252.3109,"ARG_OF_PERICENTER":46.7585,"MEAN_ANOMALY":313.4929,"EPHEMERIS_TYPE":0,"CLASSIFICATION_TYPE":"U","NORAD_CAT_ID":67794,"ELEMENT_SET_NO":999,"REV_AT_EPOCH":404,"BSTAR":-0.00024136432,"MEAN_MOTION_DOT":-7.859e-5,"MEAN_MOTION_DDOT":0},{"OBJECT_NAME":"KUIPER-00279","OBJECT_ID":"2026-030AH","EPOCH":"2026-03-02T22:23:42.662688","MEAN_MOTION":15.35056798,"ECCENTRICITY":0.00063289,"INCLINATION":51.8794,"RA_OF_ASC_NODE":251.7804,"ARG_OF_PERICENTER":29.4357,"MEAN_ANOMALY":330.6984,"EPHEMERIS_TYPE":0,"CLASSIFICATION_TYPE":"U","NORAD_CAT_ID":67795,"ELEMENT_SET_NO":999,"REV_AT_EPOCH":405,"BSTAR":0.0011085285,"MEAN_MOTION_DOT":0.00038114,"MEAN_MOTION_DDOT":0}]
