KUIPER-00225            
1 67784U 26030W   26061.92693728  .00026038  00000+0  75004-3 0  9991
2 67784  51.8802 251.7416 0003768  22.8865 337.2288 15.35565465  4056
KUIPER-00226            
1 67785U 26030X   26061.90331123 -.00002059  00000+0 -54351-4 0  9990
2 67785  51.8811 252.3201 0019717  53.0766 307.2021 15.31362603  4049
KUIPER-00259            
1 67786U 26030Y   26061.93659623  .00034884  00000+0  10254-2 0  9993
2 67786  51.8800 251.8042 0008170  31.1909 328.9560 15.34753379  4058
KUIPER-00260            
1 67787U 26030Z   26061.92017842  .00027419  00000+0  77526-3 0  9996
2 67787  51.8793 251.6967 0000819  77.1636 282.9441 15.36122901  3962
KUIPER-00262            
1 67788U 26030AA  26061.91716677  .00028508  00000+0  79752-3 0  9991
2 67788  51.8806 251.6798 0000791 151.4691 208.6339 15.36434888  4058
KUIPER-00266            
1 67789U 26030AB  26061.90731737  .00019253  00000+0  63942-3 0  9996
2 67789  51.8808 252.3434 0022660  52.7707 307.5340 15.30992097  4041
KUIPER-00268            
1 67790U 26030AC  26061.92458629  .00034275  00000+0  97943-3 0  9995
2 67790  51.8839 251.7335 0002231  31.1642 328.9476 15.35675694  4055
KUIPER-00270            
1 67791U 26030AD  26061.94132453  .00024730  00000+0  74079-3 0  9992
2 67791  51.8795 251.8335 0009958  37.5814 322.5865 15.34324915  4050
KUIPER-00274            
1 67792U 26030AE  26061.89748645  .00018802  00000+0  61356-3 0  9990
2 67792  51.8819 252.2891 0017116  49.8468 310.4013 15.31678999  4047
KUIPER-00275            
1 67793U 26030AF  26061.93882827  .00035013  00000+0  10403-2 0  9996
2 67793  51.8834 251.8271 0008792  34.0972 326.0577 15.34406671  4056
KUIPER-00276            
1 67794U 26030AG  26061.90129985 -.00007859  00000+0 -24136-3 0  9991
2 67794  51.8817 252.3109 0018373  46.7585 313.4929 15.31494025  4047
KUIPER-00279            
1 67795U 26030AH  26061.93313267  .00038114  00000+0  11085-2 0  9997
2 67795  51.8794 251.7804 0006328  29.4357 330.6984 15.35056798  4057
